RADCAL                  
1 22698U 93041A   13240.48972150  .00000072  00000-0  25244-4 0  6021
2 22698  89.5357 307.2157 0088332 351.6485 134.9557 14.23048730 47307
STRV 1A                 
1 23125U 94034B   13240.42182974  .00010841  00000-0  13839-2 0  2588
2 23125   7.3208 311.3800 6741626 178.8079 184.4782  3.00411092184044
STRV 1B                 
1 23126U 94034C   13241.51904992  .00004163  00000-0  78850-3 0  2330
2 23126   7.3410 231.9262 6688892 336.8521   3.4001  3.06252671187399
REX 2                   
1 23814U 96014A   13240.78365929  .00000086  00000-0  32855-4 0  9369
2 23814  90.1385 298.6407 0020752 340.0831 156.9614 14.24128739907781
COSMOS 2346             
1 24953U 97052A   13241.12389528  .00000032  00000-0  15349-4 0  8412
2 24953  82.9189 247.5310 0041001 140.7525 285.8707 13.79500039802109
ARGOS                   
1 25634U 99008A   13240.13605669  .00000006  00000-0  23941-4 0  9575
2 25634  98.8015 305.3569 0009479 239.9653 180.4109 14.19087162751443
HELIOS 1B               
1 25977U 99064A   13241.16721089  .00000692  00000-0  10023-3 0   350
2 25977  98.2005 308.2711 0002661  99.7380 294.0331 14.79339583738540
MTI                     
1 26102U 00014A   13241.31332536  .00005818  00000-0  26874-3 0  3124
2 26102  97.4130   8.1672 0016057 178.9954 237.4670 15.20465906741608
STRV 1C                 
1 26610U 00072C   13239.96963836 -.00000402  00000-0  10000-3 0  5359
2 26610   6.3420 125.9685 7338607 358.8333   0.2471  2.03477657 95037
MIDSTAR-1               
1 30773U 07006B   13240.80923451  .00002706  00000-0  99801-4 0  8383
2 30773  46.0694  79.3400 0009284 223.3287 208.7476 15.30824552361014
CFESAT                  
1 30777U 07006F   13240.11139826  .00004714  00000-0  28119-3 0  6973
2 30777  35.4288 132.0686 0003956 210.7815 149.2672 15.10674149356170
NFIRE                   
1 31140U 07014A   13240.48313797  .00015809  00000-0  25286-3 0  1792
2 31140  48.2197 318.2085 0003396 108.8228 325.1773 15.53195394360258
SPIRALE A               
1 33751U 09008C   13240.86888671  .00040711  00000-0  14579-2 0  3173
2 33751   2.0480  96.0628 5788057 210.8180  96.6588  4.43990531 47401
SPIRALE B               
1 33752U 09008D   13239.80300203  .00003231  00000-0  88660-3 0  1656
2 33752   2.2423 324.7972 7122831 113.4782 332.6903  2.48185994 38679
SAPPHIRE                
1 39088U 13009C   13240.52332683  .00000108  00000-0  54889-4 0  1824
2 39088  98.6280  70.3837 0012379  83.3356 276.9238 14.33768632 26357
